NORAD_CAT_ID,OBJECT_NAME,OBJECT_TYPE,EPOCH,MEAN_MOTION,ECCENTRICITY,INCLINATION,RA_OF_ASC_NODE,ARG_OF_PERICENTER,MEAN_ANOMALY,BSTAR,MEAN_MOTION_DOT,MEAN_MOTION_DDOT,TLE_LINE0,TLE_LINE1,TLE_LINE2,SEMIMAJOR_AXIS,PERIOD,APOGEE,PERIGEE,DECAYED
51140.0,STARLINK-3175,PAYLOAD,2023-05-29 18:58:43,15.08839127,9.94e-05,53.2158,175.1886,81.2247,278.8857,4.5199e-05,4.32e-06,0.0,0 STARLINK-3175,1 51140U 22005AN  23149.79078563  .00000432  00000-0  45199-4 0  9995,2 51140  53.2158 175.1886 0000994  81.2247 278.8857 15.08839127 75527,6917.883,95.438,540.436,539.06,0.0
51140.0,STARLINK-3175,PAYLOAD,2023-05-30 07:41:49,15.08836537,0.0001061,53.2158,172.8096,82.1299,277.9813,-1.931e-05,-5.95e-06,0.0,0 STARLINK-3175,1 51140U 22005AN  23150.32070970 -.00000595  00000-0 -19310-4 0  9998,2 51140  53.2158 172.8096 0001061  82.1299 277.9813 15.08836537 76713,6917.891,95.438,540.49,539.022,0.0
51140.0,STARLINK-3175,PAYLOAD,2023-05-30 09:17:12,15.08837296,0.0001066,53.2159,172.5123,81.9842,278.1271,-1.2761e-05,-4.91e-06,0.0,0 STARLINK-3175,1 51140U 22005AN  23150.38694913 -.00000491  00000-0 -12761-4 0  9991,2 51140  53.2159 172.5123 0001066  81.9842 278.1271 15.08837296 75610,6917.889,95.438,540.491,539.016,0.0
51140.0,STARLINK-3175,PAYLOAD,2023-05-30 18:49:31,15.08839735,0.0001077,53.216,170.7281,81.2391,278.8723,3.9726e-06,-2.25e-06,0.0,0 STARLINK-3175,1 51140U 22005AN  23150.78438713 -.00000225  00000-0  39726-5 0  9994,2 51140  53.2160 170.7281 0001077  81.2391 278.8723 15.08839735 75676,6917.881,95.438,540.491,539.001,0.0
51140.0,STARLINK-3175,PAYLOAD,2023-05-31 10:43:22,15.08838581,0.0001018,53.2158,167.7542,81.4145,278.6963,7.4811e-06,-1.69e-06,0.0,0 STARLINK-3175,1 51140U 22005AN  23151.44678742 -.00000169  00000-0  74811-5 0  9997,2 51140  53.2158 167.7542 0001018  81.4145 278.6963 15.08838581 76889,6917.885,95.438,540.454,539.045,0.0
51140.0,STARLINK-3175,PAYLOAD,2023-05-31 18:40:19,15.08825859,9.74e-05,53.2157,166.266,84.1827,275.9276,-6.6883e-05,-1.352e-05,0.0,0 STARLINK-3175,1 51140U 22005AN  23151.77799923 -.00001352  00000-0 -66883-4 0  9993,2 51140  53.2157 166.2660 0000974  84.1827 275.9276 15.08825859 75824,6917.924,95.438,540.462,539.115,0.0
51140.0,STARLINK-3175,PAYLOAD,2023-06-01 01:01:52,15.08821925,0.0001028,53.2158,165.0765,86.3124,273.7985,-4.8369e-05,-1.057e-05,0.0,0 STARLINK-3175,1 51140U 22005AN  23152.04296370 -.00001057  00000-0 -48369-4 0  9993,2 51140  53.2158 165.0765 0001028  86.3124 273.7985 15.08821925 76973,6917.936,95.439,540.512,539.089,0.0
51140.0,STARLINK-3175,PAYLOAD,2023-06-01 07:23:24,15.08822095,0.0001057,53.2153,163.8872,82.8205,277.2908,-5.1923e-05,-1.114e-05,0.0,0 STARLINK-3175,1 51140U 22005AN  23152.30792637 -.00001114  00000-0 -51923-4 0  9993,2 51140  53.2153 163.8872 0001057  82.8205 277.2908 15.08822095 75901,6917.935,95.439,540.531,539.069,0.0
51140.0,STARLINK-3175,PAYLOAD,2023-06-01 23:17:16,15.08830802,0.000112,53.2152,160.9136,79.7986,280.3132,-1.2044e-05,-4.79e-06,0.0,0 STARLINK-3175,1 51140U 22005AN  23152.97032513 -.00000479  00000-0 -12044-4 0  9990,2 51140  53.2152 160.9136 0001120  79.7986 280.3132 15.08830802 77117,6917.909,95.438,540.548,538.999,0.0
51140.0,STARLINK-3175,PAYLOAD,2023-06-02 10:24:58,15.08832692,0.0001115,53.2152,158.8321,77.3672,282.7445,-7.6079e-06,-4.09e-06,0.0,0 STARLINK-3175,1 51140U 22005AN  23153.43400636 -.00000409  00000-0 -76079-5 0  9999,2 51140  53.2152 158.8321 0001115  77.3672 282.7445 15.08832692 76075,6917.903,95.438,540.539,538.996,0.0
51140.0,STARLINK-3175,PAYLOAD,2023-06-03 10:15:45,15.08833346,0.0001139,53.2159,154.3731,73.2602,286.8515,0.00014445,2.011e-05,0.0,0 STARLINK-3175,1 51140U 22005AN  23154.42760797  .00002011  00000-0  14445-3 0  9992,2 51140  53.2159 154.3731 0001139  73.2602 286.8515 15.08833346 77332,6917.901,95.438,540.554,538.978,0.0
51140.0,STARLINK-3175,PAYLOAD,2023-06-03 16:37:17,15.08836918,0.0001146,53.2159,153.1839,74.1658,285.9461,0.00012145,1.645e-05,0.0,0 STARLINK-3175,1 51140U 22005AN  23154.69256711  .00001645  00000-0  12145-3 0  9994,2 51140  53.2159 153.1839 0001146  74.1658 285.9461 15.08836918 76266,6917.89,95.438,540.548,538.962,0.0
51140.0,STARLINK-3175,PAYLOAD,2023-06-04 06:55:45,15.08843813,0.000117,53.2159,150.5073,72.0922,288.0198,0.00010752,1.424e-05,0.0,0 STARLINK-3175,1 51140U 22005AN  23155.28872343  .00001424  00000-0  10752-3 0  9992,2 51140  53.2159 150.5073 0001170  72.0922 288.0198 15.08843813 77461,6917.869,95.437,540.543,538.924,0.0
51140.0,STARLINK-3175,PAYLOAD,2023-06-05 08:21:54,15.08853955,0.00012,53.2159,145.7494,71.7406,288.3717,0.00010522,1.388e-05,0.0,0 STARLINK-3175,1 51140U 22005AN  23156.34855131  .00001388  00000-0  10522-3 0  9990,2 51140  53.2159 145.7494 0001200  71.7406 288.3717 15.08853955 77627,6917.838,95.437,540.533,538.873,0.0
51140.0,STARLINK-3175,PAYLOAD,2023-06-06 01:51:10,15.08842871,0.0001264,53.216,142.4783,81.3308,278.7827,-3.5515e-05,-8.53e-06,0.0,0 STARLINK-3175,1 51140U 22005AN  23157.07719913 -.00000853  00000-0 -35515-4 0  9996,2 51140  53.2160 142.4783 0001264  81.3308 278.7827 15.08842871 77734,6917.872,95.437,540.611,538.862,0.0
51140.0,STARLINK-3175,PAYLOAD,2023-06-06 08:12:42,15.08845064,0.000125,53.2159,141.2888,82.3515,277.7619,-1.1471e-05,-4.7e-06,0.0,0 STARLINK-3175,1 51140U 22005AN  23157.34215580 -.00000470  00000-0 -11471-4 0  9997,2 51140  53.2159 141.2888 0001250  82.3515 277.7619 15.08845064 76667,6917.865,95.437,540.595,538.865,0.0
51140.0,STARLINK-3175,PAYLOAD,2023-06-06 17:45:01,15.08844767,0.0001232,53.2158,139.5048,86.4379,273.6754,-3.7755e-05,-8.89e-06,0.0,0 STARLINK-3175,1 51140U 22005AN  23157.73959501 -.00000889  00000-0 -37755-4 0  9995,2 51140  53.2158 139.5048 0001232  86.4379 273.6754 15.08844767 76728,6917.866,95.437,540.583,538.879,0.0
51140.0,STARLINK-3175,PAYLOAD,2023-06-07 08:03:28,15.08848492,0.000123,53.2159,136.8278,83.9781,276.1352,-7.5792e-06,-4.09e-06,0.0,0 STARLINK-3175,1 51140U 22005AN  23158.33574938 -.00000409  00000-0 -75792-5 0  9991,2 51140  53.2159 136.8278 0001230  83.9781 276.1352 15.08848492 77925,6917.854,95.437,540.57,538.869,0.0
51140.0,STARLINK-3175,PAYLOAD,2023-06-07 17:35:47,15.0884019,0.0001247,53.2157,135.0437,83.5893,276.5241,-3.1388e-06,-3.38e-06,0.0,0 STARLINK-3175,1 51140U 22005AN  23158.73319331 -.00000338  00000-0 -31388-5 0  9993,2 51140  53.2157 135.0437 0001247  83.5893 276.5241 15.08840190 77983,6917.88,95.438,540.607,538.882,0.0
51140.0,STARLINK-3175,PAYLOAD,2023-06-08 07:54:15,15.0884026,0.0001223,53.2158,132.3671,84.8926,275.2206,4.2467e-05,3.88e-06,0.0,0 STARLINK-3175,1 51140U 22005AN  23159.32935182  .00000388  00000-0  42467-4 0  9999,2 51140  53.2158 132.3671 0001223  84.8926 275.2206 15.08840260 76961,6917.88,95.438,540.591,538.899,0.0
51140.0,STARLINK-3175,PAYLOAD,2023-06-08 22:12:44,15.08838366,0.0001241,53.2157,129.6904,86.0323,274.0811,1.2856e-05,-8.3e-07,0.0,0 STARLINK-3175,1 51140U 22005AN  23159.92551423 -.00000083  00000-0  12856-4 0  9999,2 51140  53.2157 129.6904 0001241  86.0323 274.0811 15.08838366 78160,6917.885,95.438,540.609,538.892,0.0
51140.0,STARLINK-3175,PAYLOAD,2023-06-09 04:34:16,15.08841593,0.0001194,53.2158,128.4999,91.0551,269.0578,4.3649e-05,4.07e-06,0.0,0 STARLINK-3175,1 51140U 22005AN  23160.19047077  .00000407  00000-0  43649-4 0  9998,2 51140  53.2158 128.4999 0001194  91.0551 269.0578 15.08841593 77099,6917.876,95.437,540.567,538.915,0.0
51140.0,STARLINK-3175,PAYLOAD,2023-06-10 04:25:04,15.08836549,0.0001192,53.2158,124.0396,91.4626,268.6502,2.0734e-05,4.2e-07,0.0,0 STARLINK-3175,1 51140U 22005AN  23161.18407687  .00000042  00000-0  20734-4 0  9990,2 51140  53.2158 124.0396 0001192  91.4626 268.6502 15.08836549 78354,6917.891,95.438,540.581,538.931,0.0
51140.0,STARLINK-3175,PAYLOAD,2023-06-10 13:57:23,15.08836523,0.0001116,53.2162,122.2561,86.7356,273.3764,-8.4768e-06,-4.23e-06,0.0,0 STARLINK-3175,1 51140U 22005AN  23161.58151882 -.00000423  00000-0 -84768-5 0  9990,2 51140  53.2162 122.2561 0001116  86.7356 273.3764 15.08836523 77305,6917.891,95.438,540.528,538.984,0.0
51140.0,STARLINK-3175,PAYLOAD,2023-06-10 21:54:19,15.08834555,0.0001121,53.2162,120.7699,93.1465,266.9656,-4.2319e-07,-2.95e-06,0.0,0 STARLINK-3175,1 51140U 22005AN  23161.91272122 -.00000295  00000-0 -42319-6 0  9992,2 51140  53.2162 120.7699 0001121  93.1465 266.9656 15.08834555 77355,6917.897,95.438,540.538,538.987,0.0
51140.0,STARLINK-3175,PAYLOAD,2023-06-11 07:26:37,15.08840154,0.0001126,53.2165,118.9854,91.7989,268.3132,4.5992e-05,4.44e-06,0.0,0 STARLINK-3175,1 51140U 22005AN  23162.31015715  .00000444  00000-0  45992-4 0  9992,2 51140  53.2165 118.9854 0001126  91.7989 268.3132 15.08840154 78527,6917.88,95.438,540.524,538.966,0.0
51140.0,STARLINK-3175,PAYLOAD,2023-06-11 13:48:10,15.08840894,0.0001112,53.2166,117.7959,89.6911,270.4209,1.5546e-05,-4e-07,0.0,0 STARLINK-3175,1 51140U 22005AN  23162.57511774 -.00000040  00000-0  15546-4 0  9991,2 51140  53.2166 117.7959 0001112  89.6911 270.4209 15.08840894 77458,6917.878,95.437,540.512,538.973,0.0
51140.0,STARLINK-3175,PAYLOAD,2023-06-11 16:58:56,15.08832548,0.0001103,53.2165,117.2019,92.3742,267.7377,2.8361e-05,1.64e-06,0.0,0 STARLINK-3175,1 51140U 22005AN  23162.70760326  .00000164  00000-0  28361-4 0  9990,2 51140  53.2165 117.2019 0001103  92.3742 267.7377 15.08832548 77476,6917.903,95.438,540.531,539.005,0.0
51140.0,STARLINK-3175,PAYLOAD,2023-06-12 04:06:38,15.08833861,0.0001091,53.2168,115.1198,89.4387,270.6731,4.4085e-05,4.14e-06,0.0,0 STARLINK-3175,1 51140U 22005AN  23163.17128323  .00000414  00000-0  44085-4 0  9996,2 51140  53.2168 115.1198 0001091  89.4387 270.6731 15.08833861 78659,6917.899,95.438,540.519,539.009,0.0
51140.0,STARLINK-3175,PAYLOAD,2023-06-12 13:38:57,15.08834106,0.0001079,53.2167,113.3363,94.1972,265.9143,1.7293e-05,-1.3e-07,0.0,0 STARLINK-3175,1 51140U 22005AN  23163.56872485 -.00000013  00000-0  17293-4 0  9991,2 51140  53.2167 113.3363 0001079  94.1972 265.9143 15.08834106 77602,6917.898,95.438,540.51,539.017,0.0
